{
    "links": {
        "self": "http://www.neowsapp.com/rest/v1/neo/3655559?api_key=iIulBulltgU6a56xZRHN4H3l9WmuAYTsLGpBGhQ2"
    },
    "id": "3655559",
    "neo_reference_id": "3655559",
    "name": "(2013 YL48)",
    "designation": "2013 YL48",
    "nasa_jpl_url": "http://ssd.jpl.nasa.gov/sbdb.cgi?sstr=3655559",
    "absolute_magnitude_h": 23.9,
    "estimated_diameter": {
        "kilometers": {
            "estimated_diameter_min": 0.04411182,
            "estimated_diameter_max": 0.0986370281
        },
        "meters": {
            "estimated_diameter_min": 44.1118199997,
            "estimated_diameter_max": 98.6370281305
        },
        "miles": {
            "estimated_diameter_min": 0.0274098057,
            "estimated_diameter_max": 0.0612901888
        },
        "feet": {
            "estimated_diameter_min": 144.7238235278,
            "estimated_diameter_max": 323.6123073718
        }
    },
    "is_potentially_hazardous_asteroid": false,
    "close_approach_data": [
        {
            "close_approach_date": "2009-12-25",
            "close_approach_date_full": "2009-Dec-25 15:32",
            "epoch_date_close_approach": 1261755120000,
            "relative_velocity": {
                "kilometers_per_second": "15.8484456347",
                "kilometers_per_hour": "57054.4042848415",
                "miles_per_hour": "35451.3880402117"
            },
            "miss_distance": {
                "astronomical": "0.2710503411",
                "lunar": "105.4385826879",
                "kilometers": "40548553.691333457",
                "miles": "25195702.9235254266"
            },
            "orbiting_body": "Earth"
        },
        {
            "close_approach_date": "2014-01-08",
            "close_approach_date_full": "2014-Jan-08 01:19",
            "epoch_date_close_approach": 1389143940000,
            "relative_velocity": {
                "kilometers_per_second": "8.0950088356",
                "kilometers_per_hour": "29142.0318082759",
                "miles_per_hour": "18107.7252644256"
            },
            "miss_distance": {
                "astronomical": "0.0961456423",
                "lunar": "37.4006548547",
                "kilometers": "14383183.297861901",
                "miles": "8937295.6733841938"
            },
            "orbiting_body": "Earth"
        },
        {
            "close_approach_date": "2014-06-15",
            "close_approach_date_full": "2014-Jun-15 04:23",
            "epoch_date_close_approach": 1402806180000,
            "relative_velocity": {
                "kilometers_per_second": "7.5590360073",
                "kilometers_per_hour": "27212.5296262874",
                "miles_per_hour": "16908.807644734"
            },
            "miss_distance": {
                "astronomical": "0.2539920975",
                "lunar": "98.8029259275",
                "kilometers": "37996676.782832325",
                "miles": "23610040.140743085"
            },
            "orbiting_body": "Earth"
        },
        {
            "close_approach_date": "2018-05-31",
            "close_approach_date_full": "2018-May-31 00:28",
            "epoch_date_close_approach": 1527726480000,
            "relative_velocity": {
                "kilometers_per_second": "11.2824952933",
                "kilometers_per_hour": "40616.98305575",
                "miles_per_hour": "25237.813721502"
            },
            "miss_distance": {
                "astronomical": "0.1833202195",
                "lunar": "71.3115653855",
                "kilometers": "27424314.365132465",
                "miles": "17040678.759719417"
            },
            "orbiting_body": "Earth"
        }
    ],
    "orbital_data": {
        "orbit_id": "11",
        "orbit_determination_date": "2017-04-06 08:43:06",
        "first_observation_date": "2013-12-30",
        "last_observation_date": "2014-01-04",
        "data_arc_in_days": 5,
        "observations_used": 50,
        "orbit_uncertainty": "8",
        "minimum_orbit_intersection": ".050852",
        "jupiter_tisserand_invariant": "5.169",
        "epoch_osculation": "2456658.5",
        "eccentricity": ".2528406620296879",
        "semi_major_axis": "1.222479708507397",
        "inclination": "13.44834439747546",
        "ascending_node_longitude": "276.5004220032926",
        "orbital_period": "493.6974858799198",
        "perihelion_distance": ".9133871296905269",
        "perihelion_argument": "249.9054465111153",
        "aphelion_distance": "1.531572287324267",
        "perihelion_time": "2456720.020916073693",
        "mean_anomaly": "315.1394722072449",
        "mean_motion": ".7291914791876446",
        "equinox": "J2000",
        "orbit_class": {
            "orbit_class_type": "APO",
            "orbit_class_description": "Near-Earth asteroid orbits which cross the Earth’s orbit similar to that of 1862 Apollo",
            "orbit_class_range": "a (semi-major axis) > 1.0 AU; q (perihelion) < 1.017 AU"
        }
    },
    "is_sentry_object": false
}